[{"OBJECT_NAME":"SCS-01 M","OBJECT_ID":"2025-100M","EPOCH":"2026-03-09T23:50:15.541152","MEAN_MOTION":15.31880861,"ECCENTRICITY":0.00078021,"INCLINATION":97.3725,"RA_OF_ASC_NODE":145.6908,"ARG_OF_PERICENTER":292.3826,"MEAN_ANOMALY":67.6588,"EPHEMERIS_TYPE":0,"CLASSIFICATION_TYPE":"U","NORAD_CAT_ID":63993,"ELEMENT_SET_NO":999,"REV_AT_EPOCH":4565,"BSTAR":0.0012010051,"MEAN_MOTION_DOT":0.00037061,"MEAN_MOTION_DDOT":0},{"OBJECT_NAME":"STARLINK-36089","OBJECT_ID":"2025-286Y","EPOCH":"2026-03-09T01:04:26.909760","MEAN_MOTION":15.30209605,"ECCENTRICITY":0.00012127,"INCLINATION":53.1601,"RA_OF_ASC_NODE":1.7547,"ARG_OF_PERICENTER":92.3094,"MEAN_ANOMALY":267.8046,"EPHEMERIS_TYPE":0,"CLASSIFICATION_TYPE":"U","NORAD_CAT_ID":66947,"ELEMENT_SET_NO":999,"REV_AT_EPOCH":1531,"BSTAR":0.00073641481,"MEAN_MOTION_DOT":0.00021521,"MEAN_MOTION_DDOT":0}]
